     2.11           N: GPS NAV DATA                         RINEX VERSION / TYPE
teqc  2019Feb25                         20221121 12:23:48UTCPGM / RUN BY / DATE
OSX ker:10.11.6|Core i5|gcc 4.3 -m64|OSX ker:10.10+|=+      COMMENT
    6.5193D-09  2.2352D-08 -5.9605D-08 -1.1921D-07          ION ALPHA
    8.6016D+04  9.8304D+04 -6.5536D+04 -5.2429D+05          ION BETA
    3.725290298462D-09 1.065814103640D-14   319488     1534 DELTA-UTC: A0,A1,T,W
                                                            END OF HEADER
 4 09  6  2  8  0  0.0-1.159114763141D-04-1.568878360558D-11 0.000000000000D+00
    7.900000000000D+01 7.600000000000D+01 5.090926343231D-09 1.230006570025D+00
    4.276633262634D-06 8.597066043876D-03 9.223818778992D-06 5.153752092361D+03
    2.016000000000D+05-1.862645149231D-08-5.158185832402D-01 1.490116119385D-07
    9.406651434390D-01 1.920625000000D+02 4.868314554442D-01-8.362848346201D-09
   -1.142904749427D-10 1.000000000000D+00 1.534000000000D+03 0.000000000000D+00
    2.000000000000D+00 0.000000000000D+00-6.053596735001D-09 7.900000000000D+01
    1.944180000000D+05 4.000000000000D+00
12 09  6  2  8  0  0.0-2.725049853325D-04 5.570655048359D-12 0.000000000000D+00
    6.500000000000D+01-8.656250000000D+00 4.679837791171D-09 2.962831106791D+00
   -5.140900611877D-07 3.333143540658D-03 5.733221769333D-06 5.153643100739D+03
    2.016000000000D+05-1.676380634308D-08-2.610445148044D+00 9.499490261078D-08
    9.671239435656D-01 2.668750000000D+02-6.932385800323D-01-8.141767708734D-09
    2.792973481413D-10 1.000000000000D+00 1.534000000000D+03 0.000000000000D+00
    2.000000000000D+00 0.000000000000D+00-1.164153218269D-08 6.500000000000D+01
    1.944180000000D+05 4.000000000000D+00
 9 09  6  2  8  0  0.0 5.901092663407D-05 1.932676241267D-12 0.000000000000D+00
    4.600000000000D+01-1.650000000000D+01 3.801944080517D-09 1.977180721856D+00
   -1.035630702972D-06 2.057831338607D-02 9.920448064804D-06 5.153638116837D+03
    2.016000000000D+05 3.371387720108D-07 2.587126489871D+00-2.887099981308D-07
    9.765923224188D-01 1.933125000000D+02 1.478336799873D+00-7.546028608095D-09
    4.310893851747D-10 1.000000000000D+00 1.534000000000D+03 0.000000000000D+00
    2.000000000000D+00 0.000000000000D+00-5.587935447693D-09 4.600000000000D+01
    1.944180000000D+05 4.000000000000D+00
14 09  6  2  8  0  0.0-1.011681742966D-04 5.911715561524D-12 0.000000000000D+00
    1.060000000000D+02-7.796875000000D+01 3.790157875289D-09-1.164491619807D+00
   -4.118308424950D-06 4.449419328012D-03 7.640570402145D-06 5.153611083984D+03
    2.016000000000D+05 1.545995473862D-07 1.611604230585D+00 9.313225746155D-08
    9.881620499672D-01 2.485000000000D+02-2.155785335581D+00-7.878185300897D-09
   -3.875161416028D-10 1.000000000000D+00 1.534000000000D+03 0.000000000000D+00
    2.000000000000D+00 0.000000000000D+00-9.313225746155D-09 1.060000000000D+02
    1.944180000000D+05 4.000000000000D+00
23 09  6  2  8  0  0.0 3.901729360223D-04 1.136868377216D-13 0.000000000000D+00
    8.700000000000D+01-6.712500000000D+01 4.151244344561D-09-1.762847333027D+00
   -3.565102815628D-06 6.143246311694D-03 7.042661309242D-06 5.153607307434D+03
    2.016000000000D+05-9.685754776001D-08 1.578974210019D+00-1.676380634308D-08
    9.701536147236D-01 2.501875000000D+02 2.885495393745D+00-7.985332621156D-09
   -1.796503403006D-10 1.000000000000D+00 1.534000000000D+03 0.000000000000D+00
    2.000000000000D+00 0.000000000000D+00-2.002343535423D-08 8.700000000000D+01
    1.960860000000D+05 4.000000000000D+00
 2 09  6  2  8  0  0.0 1.553283073008D-04 9.094947017729D-13 0.000000000000D+00
    5.500000000000D+01 7.409375000000D+01 5.033423948025D-09-1.642144449268D+00
    3.864988684654D-06 9.050768916495D-03 9.499490261078D-06 5.153666566849D+03
    2.016000000000D+05-4.470348358154D-08-5.341798596953D-01-1.527369022369D-07
    9.414435870186D-01 1.866250000000D+02 2.829016549106D+00-8.303560162325D-09
    8.571785620706D-11 1.000000000000D+00 1.534000000000D+03 0.000000000000D+00
    2.000000000000D+00 0.000000000000D+00-1.722946763039D-08 5.500000000000D+01
    1.965360000000D+05 4.000000000000D+00
30 09  6  2  8  0  0.0 1.506782136858D-04 2.728484105319D-12 0.000000000000D+00
    3.600000000000D+01-2.843750000000D+00 5.102712548459D-09 3.907580307890D-01
   -3.632158041000D-07 1.144416385796D-02 5.880370736122D-06 5.153582746506D+03
    2.016000000000D+05-1.527369022369D-07-2.658291427205D+00-1.862645149231D-08
    9.522074310330D-01 2.619687500000D+02 1.417957550846D+00-8.576071513516D-09
    2.357241045694D-10 1.000000000000D+00 1.534000000000D+03 0.000000000000D+00
    2.000000000000D+00 0.000000000000D+00-8.381903171539D-09 3.600000000000D+01
    1.966860000000D+05 4.000000000000D+00
31 09  6  2  8  0  0.0-6.153667345643D-05-7.958078640513D-13 0.000000000000D+00
    3.300000000000D+01-1.468750000000D+01 3.919448975068D-09 2.763736212912D+00
   -6.277114152908D-07 7.044509286061D-03 1.001358032227D-05 5.153724103928D+03
    2.016000000000D+05 8.195638656616D-08 2.618997482706D+00 1.490116119385D-08
    9.730616018186D-01 1.916875000000D+02-1.139794825510D+00-7.634960883910D-09
    3.607293115380D-10 1.000000000000D+00 1.534000000000D+03 0.000000000000D+00
    2.000000000000D+00 0.000000000000D+00-1.303851604462D-08 3.300000000000D+01
    1.969560000000D+05 4.000000000000D+00
13 09  6  2  8  0  0.0 2.985093742609D-04 7.958078640513D-13 0.000000000000D+00
    1.020000000000D+02-5.600000000000D+01 3.623722371153D-09-1.014508278548D+00
   -2.939254045486D-06 4.152760375291D-03 7.400289177895D-06 5.153704671860D+03
    2.016000000000D+05-3.725290298462D-08 1.631154647316D+00 7.636845111847D-08
    9.946586336274D-01 2.552187500000D+02 1.578781663668D+00-7.796753337501D-09
   -2.346526313668D-10 1.000000000000D+00 1.534000000000D+03 0.000000000000D+00
    2.000000000000D+00 0.000000000000D+00-1.117587089539D-08 1.020000000000D+02
    1.993560000000D+05 4.000000000000D+00
 4 09  6  2 10  0  0.0-1.160246320069D-04-1.568878360558D-11 0.000000000000D+00
    8.000000000000D+01 6.812500000000D+01 5.011280168505D-09 2.279993600737D+00
    3.546476364136D-06 8.597112842835D-03 9.594485163689D-06 5.153754442215D+03
    2.088000000000D+05-2.626329660416D-07-5.158794055222D-01-5.960464477539D-08
    9.406656613120D-01 1.860312500000D+02 4.869809568944D-01-8.149625178886D-09
    7.357449324439D-11 1.000000000000D+00 1.534000000000D+03 0.000000000000D+00
    2.000000000000D+00 0.000000000000D+00-6.053596735001D-09 8.000000000000D+01
    2.016180000000D+05 4.000000000000D+00
12 09  6  2 10  0  0.0-2.724649384618D-04 5.570655048359D-12 0.000000000000D+00
    6.900000000000D+01-9.531250000000D+00 4.549475218190D-09-2.270136960499D+00
   -2.980232238770D-07 3.332976251841D-03 5.986541509628D-06 5.153643430710D+03
    2.088000000000D+05-2.980232238770D-08-2.610503713044D+00 2.980232238770D-08
    9.671262505874D-01 2.678437500000D+02-6.932555703629D-01-8.096408676491D-09
    3.035840740667D-10 1.000000000000D+00 1.534000000000D+03 0.000000000000D+00
    2.000000000000D+00 0.000000000000D+00-1.164153218269D-08 6.900000000000D+01
    2.016180000000D+05 4.000000000000D+00
20 09  6  2 10  0  0.0 8.101109415293D-05-1.023181539495D-12 0.000000000000D+00
    1.040000000000D+02 4.915625000000D+01 5.230932175036D-09 1.883015763073D+00
    2.298504114151D-06 3.958754241467D-03 3.291293978691D-06 5.153598169327D+03
    2.088000000000D+05-4.284083843231D-08 5.013355582040D-01-3.725290298462D-08
    9.421671009501D-01 3.035312500000D+02 1.362373696081D+00-8.568928358832D-09
   -6.000249934494D-11 1.000000000000D+00 1.534000000000D+03 0.000000000000D+00
    2.000000000000D+00 0.000000000000D+00-6.519258022308D-09 1.040000000000D+02
    2.016180000000D+05 4.000000000000D+00
 2 09  6  2 10  0  0.0 1.553348265588D-04 9.094947017729D-13 0.000000000000D+00
    7.700000000000D+01 6.643750000000D+01 5.079497295737D-09-5.920454877681D-01
    3.507360816002D-06 9.051045286469D-03 9.229406714439D-06 5.153665372849D+03
    2.088000000000D+05 3.725290298462D-08-5.342398232445D-01-1.024454832077D-07
    9.414443843089D-01 1.930625000000D+02 2.829107955154D+00-8.327846888250D-09
    1.082187934614D-10 1.000000000000D+00 1.534000000000D+03 0.000000000000D+00
    2.000000000000D+00 0.000000000000D+00-1.722946763039D-08 7.700000000000D+01
    2.016180000000D+05 4.000000000000D+00
23 09  6  2 10  0  0.0 3.901734016836D-04 1.136868377216D-13 0.000000000000D+00
    1.070000000000D+02-7.396875000000D+01 4.185888644778D-09-7.126694734299D-01
   -3.946945071220D-06 6.143654696643D-03 6.979331374168D-06 5.153607097626D+03
    2.088000000000D+05 3.725290298462D-08 1.578917590701D+00-2.235174179077D-07
    9.701516924492D-01 2.518750000000D+02 2.885536566112D+00-8.027834391525D-09
   -3.678724662220D-10 1.000000000000D+00 1.534000000000D+03 0.000000000000D+00
    2.000000000000D+00 0.000000000000D+00-2.002343535423D-08 1.070000000000D+02
    2.016180000000D+05 4.000000000000D+00
30 09  6  2 10  0  0.0 1.506977714598D-04 2.728484105319D-12 0.000000000000D+00
    3.800000000000D+01-8.812500000000D+00 4.955206404236D-09 1.440938718207D+00
   -5.476176738739D-07 1.144470227882D-02 5.859881639481D-06 5.153584407806D+03
    2.088000000000D+05-1.639127731323D-07-2.658353456395D+00-2.551823854446D-07
    9.522098697174D-01 2.615937500000D+02 1.418016961413D+00-8.416422006331D-09
    3.146559638268D-10 1.000000000000D+00 1.534000000000D+03 0.000000000000D+00
    2.000000000000D+00 0.000000000000D+00-8.381903171539D-09 3.800000000000D+01
    2.016180000000D+05 4.000000000000D+00
